COSMOS 1933             
1 18958U 88020A   26047.10130968  .00004633  00000+0  22783-3 0  9996
2 18958  82.5111 272.2732 0002629 282.6239  77.4701 15.17790144 46956
SL-3 R/B                
1 19046U 88032B   26047.46571730  .00006133  00000+0  28879-3 0  9992
2 19046  97.5154  30.8015 0024611 311.1447  48.7664 15.19633290 48887
SL-16 R/B               
1 19120U 88039B   26047.48918006  .00000144  00000+0  90674-4 0  9994
2 19120  71.0142 113.3798 0021456   6.4082 353.7314 14.19613360955379
COSMOS 1953             
1 19210U 88050A   26047.41201312  .00010500  00000+0  38141-3 0  9992
2 19210  82.5100 179.6336 0011065 194.3058 165.7869 15.28100501 34539
SL-8 R/B                
1 19257U 88053B   26047.45327531  .00000241  00000+0  86574-4 0  9997
2 19257  74.0484 151.6075 0020731 334.6086  96.6142 14.38902683973541
COSMOS 1975             
1 19573U 88093A   26047.30884308  .00009696  00000+0  35650-3 0  9997
2 19573  82.5224 139.1371 0010457 241.9765 118.0417 15.27701175 16146
SL-14 R/B               
1 19574U 88093B   26047.52369264  .00000507  00000+0  55497-4 0  9995
2 19574  82.5278  61.9183 0022284 107.0593   8.4088 14.85631061997896
SL-16 R/B               
1 19650U 88102B   26047.50252618  .00000119  00000+0  84306-4 0  9993
2 19650  70.9990 196.0727 0012810  35.5151 324.6822 14.16151643923891
INTERCOSMOS 24          
1 20261U 89080A   26047.27758293  .00000564  00000+0  16455-3 0  9996
2 20261  82.6055 118.3434 1187561 342.5562  13.7796 12.59526260664107
SL-14 R/B               
1 20262U 89080C   26047.43082934  .00000533  00000+0  16059-3 0  9993
2 20262  82.5956 186.8315 1229644 233.3519 114.8305 12.50465767657491
DELTA 1 R/B             
1 20323U 89089B   26047.51396692  .00000363  00000+0  98465-4 0  9991
2 20323  97.0720 258.3185 0068828 188.4130 171.5920 14.50645179892664
ARIANE 40 R/B           
1 20443U 90005H   26047.13219670  .00000292  00000+0  10644-3 0  9995
2 20443  98.3132 108.4307 0008876 268.7574  91.2597 14.39855833889706
