CCSDS_OMM_VERS = 2.0
CREATION_DATE  = 
ORIGINATOR     = 

OBJECT_NAME    = COSMOS 1933
OBJECT_ID      = 1988-020A
CENTER_NAME    = EARTH
REF_FRAME      = TEME
TIME_SYSTEM    = UTC
MEAN_ELEMENT_THEORY = SGP/SGP4

EPOCH          = 2026-02-16T02:25:53.156352
MEAN_MOTION    = 15.17790144
ECCENTRICITY   = .00026293
INCLINATION    = 82.5111
RA_OF_ASC_NODE = 272.2732
ARG_OF_PERICENTER = 282.6239
MEAN_ANOMALY   = 77.4701

EPHEMERIS_TYPE = 0
CLASSIFICATION_TYPE = U
NORAD_CAT_ID   = 18958
ELEMENT_SET_NO = 999
REV_AT_EPOCH   = 4695
BSTAR          = .22782749E-3
MEAN_MOTION_DOT = .4633E-4
MEAN_MOTION_DDOT = 0

CCSDS_OMM_VERS = 2.0
CREATION_DATE  = 
ORIGINATOR     = 

OBJECT_NAME    = SL-3 R/B
OBJECT_ID      = 1988-032B
CENTER_NAME    = EARTH
REF_FRAME      = TEME
TIME_SYSTEM    = UTC
MEAN_ELEMENT_THEORY = SGP/SGP4

EPOCH          = 2026-02-16T11:10:37.974720
MEAN_MOTION    = 15.19633290
ECCENTRICITY   = .0024611
INCLINATION    = 97.5154
RA_OF_ASC_NODE = 30.8015
ARG_OF_PERICENTER = 311.1447
MEAN_ANOMALY   = 48.7664

EPHEMERIS_TYPE = 0
CLASSIFICATION_TYPE = U
NORAD_CAT_ID   = 19046
ELEMENT_SET_NO = 999
REV_AT_EPOCH   = 4888
BSTAR          = .28879E-3
MEAN_MOTION_DOT = .6133E-4
MEAN_MOTION_DDOT = 0

CCSDS_OMM_VERS = 2.0
CREATION_DATE  = 
ORIGINATOR     = 

OBJECT_NAME    = SL-16 R/B
OBJECT_ID      = 1988-039B
CENTER_NAME    = EARTH
REF_FRAME      = TEME
TIME_SYSTEM    = UTC
MEAN_ELEMENT_THEORY = SGP/SGP4

EPOCH          = 2026-02-16T11:44:25.157184
MEAN_MOTION    = 14.19613360
ECCENTRICITY   = .0021456
INCLINATION    = 71.0142
RA_OF_ASC_NODE = 113.3798
ARG_OF_PERICENTER = 6.4082
MEAN_ANOMALY   = 353.7314

EPHEMERIS_TYPE = 0
CLASSIFICATION_TYPE = U
NORAD_CAT_ID   = 19120
ELEMENT_SET_NO = 999
REV_AT_EPOCH   = 95537
BSTAR          = .90674E-4
MEAN_MOTION_DOT = .144E-5
MEAN_MOTION_DDOT = 0

CCSDS_OMM_VERS = 2.0
CREATION_DATE  = 
ORIGINATOR     = 

OBJECT_NAME    = COSMOS 1953
OBJECT_ID      = 1988-050A
CENTER_NAME    = EARTH
REF_FRAME      = TEME
TIME_SYSTEM    = UTC
MEAN_ELEMENT_THEORY = SGP/SGP4

EPOCH          = 2026-02-16T09:53:17.933568
MEAN_MOTION    = 15.28100501
ECCENTRICITY   = .0011065
INCLINATION    = 82.5100
RA_OF_ASC_NODE = 179.6336
ARG_OF_PERICENTER = 194.3058
MEAN_ANOMALY   = 165.7869

EPHEMERIS_TYPE = 0
CLASSIFICATION_TYPE = U
NORAD_CAT_ID   = 19210
ELEMENT_SET_NO = 999
REV_AT_EPOCH   = 3453
BSTAR          = .38141E-3
MEAN_MOTION_DOT = .105E-3
MEAN_MOTION_DDOT = 0

CCSDS_OMM_VERS = 2.0
CREATION_DATE  = 
ORIGINATOR     = 

OBJECT_NAME    = SL-8 R/B
OBJECT_ID      = 1988-053B
CENTER_NAME    = EARTH
REF_FRAME      = TEME
TIME_SYSTEM    = UTC
MEAN_ELEMENT_THEORY = SGP/SGP4

EPOCH          = 2026-02-16T10:52:42.986784
MEAN_MOTION    = 14.38902683
ECCENTRICITY   = .0020731
INCLINATION    = 74.0484
RA_OF_ASC_NODE = 151.6075
ARG_OF_PERICENTER = 334.6086
MEAN_ANOMALY   = 96.6142

EPHEMERIS_TYPE = 0
CLASSIFICATION_TYPE = U
NORAD_CAT_ID   = 19257
ELEMENT_SET_NO = 999
REV_AT_EPOCH   = 97354
BSTAR          = .86574E-4
MEAN_MOTION_DOT = .241E-5
MEAN_MOTION_DDOT = 0

CCSDS_OMM_VERS = 2.0
CREATION_DATE  = 
ORIGINATOR     = 

OBJECT_NAME    = COSMOS 1975
OBJECT_ID      = 1988-093A
CENTER_NAME    = EARTH
REF_FRAME      = TEME
TIME_SYSTEM    = UTC
MEAN_ELEMENT_THEORY = SGP/SGP4

EPOCH          = 2026-02-16T07:24:44.042112
MEAN_MOTION    = 15.27701175
ECCENTRICITY   = .0010457
INCLINATION    = 82.5224
RA_OF_ASC_NODE = 139.1371
ARG_OF_PERICENTER = 241.9765
MEAN_ANOMALY   = 118.0417

EPHEMERIS_TYPE = 0
CLASSIFICATION_TYPE = U
NORAD_CAT_ID   = 19573
ELEMENT_SET_NO = 999
REV_AT_EPOCH   = 1614
BSTAR          = .3565E-3
MEAN_MOTION_DOT = .9696E-4
MEAN_MOTION_DDOT = 0

CCSDS_OMM_VERS = 2.0
CREATION_DATE  = 
ORIGINATOR     = 

OBJECT_NAME    = SL-14 R/B
OBJECT_ID      = 1988-093B
CENTER_NAME    = EARTH
REF_FRAME      = TEME
TIME_SYSTEM    = UTC
MEAN_ELEMENT_THEORY = SGP/SGP4

EPOCH          = 2026-02-16T12:34:07.044096
MEAN_MOTION    = 14.85631061
ECCENTRICITY   = .0022284
INCLINATION    = 82.5278
RA_OF_ASC_NODE = 61.9183
ARG_OF_PERICENTER = 107.0593
MEAN_ANOMALY   = 8.4088

EPHEMERIS_TYPE = 0
CLASSIFICATION_TYPE = U
NORAD_CAT_ID   = 19574
ELEMENT_SET_NO = 999
REV_AT_EPOCH   = 99789
BSTAR          = .55497E-4
MEAN_MOTION_DOT = .507E-5
MEAN_MOTION_DDOT = 0

CCSDS_OMM_VERS = 2.0
CREATION_DATE  = 
ORIGINATOR     = 

OBJECT_NAME    = SL-16 R/B
OBJECT_ID      = 1988-102B
CENTER_NAME    = EARTH
REF_FRAME      = TEME
TIME_SYSTEM    = UTC
MEAN_ELEMENT_THEORY = SGP/SGP4

EPOCH          = 2026-02-16T12:03:38.261952
MEAN_MOTION    = 14.16151643
ECCENTRICITY   = .001281
INCLINATION    = 70.9990
RA_OF_ASC_NODE = 196.0727
ARG_OF_PERICENTER = 35.5151
MEAN_ANOMALY   = 324.6822

EPHEMERIS_TYPE = 0
CLASSIFICATION_TYPE = U
NORAD_CAT_ID   = 19650
ELEMENT_SET_NO = 999
REV_AT_EPOCH   = 92389
BSTAR          = .84306E-4
MEAN_MOTION_DOT = .119E-5
MEAN_MOTION_DDOT = 0

CCSDS_OMM_VERS = 2.0
CREATION_DATE  = 
ORIGINATOR     = 

OBJECT_NAME    = INTERCOSMOS 24
OBJECT_ID      = 1989-080A
CENTER_NAME    = EARTH
REF_FRAME      = TEME
TIME_SYSTEM    = UTC
MEAN_ELEMENT_THEORY = SGP/SGP4

EPOCH          = 2026-02-16T06:39:43.165152
MEAN_MOTION    = 12.59526260
ECCENTRICITY   = .1187561
INCLINATION    = 82.6055
RA_OF_ASC_NODE = 118.3434
ARG_OF_PERICENTER = 342.5562
MEAN_ANOMALY   = 13.7796

EPHEMERIS_TYPE = 0
CLASSIFICATION_TYPE = U
NORAD_CAT_ID   = 20261
ELEMENT_SET_NO = 999
REV_AT_EPOCH   = 66410
BSTAR          = .16455E-3
MEAN_MOTION_DOT = .564E-5
MEAN_MOTION_DDOT = 0

CCSDS_OMM_VERS = 2.0
CREATION_DATE  = 
ORIGINATOR     = 

OBJECT_NAME    = SL-14 R/B
OBJECT_ID      = 1989-080C
CENTER_NAME    = EARTH
REF_FRAME      = TEME
TIME_SYSTEM    = UTC
MEAN_ELEMENT_THEORY = SGP/SGP4

EPOCH          = 2026-02-16T10:20:23.654976
MEAN_MOTION    = 12.50465767
ECCENTRICITY   = .1229644
INCLINATION    = 82.5956
RA_OF_ASC_NODE = 186.8315
ARG_OF_PERICENTER = 233.3519
MEAN_ANOMALY   = 114.8305

EPHEMERIS_TYPE = 0
CLASSIFICATION_TYPE = U
NORAD_CAT_ID   = 20262
ELEMENT_SET_NO = 999
REV_AT_EPOCH   = 65749
BSTAR          = .16059E-3
MEAN_MOTION_DOT = .533E-5
MEAN_MOTION_DDOT = 0

CCSDS_OMM_VERS = 2.0
CREATION_DATE  = 
ORIGINATOR     = 

OBJECT_NAME    = DELTA 1 R/B
OBJECT_ID      = 1989-089B
CENTER_NAME    = EARTH
REF_FRAME      = TEME
TIME_SYSTEM    = UTC
MEAN_ELEMENT_THEORY = SGP/SGP4

EPOCH          = 2026-02-16T12:20:06.741888
MEAN_MOTION    = 14.50645179
ECCENTRICITY   = .0068828
INCLINATION    = 97.0720
RA_OF_ASC_NODE = 258.3185
ARG_OF_PERICENTER = 188.4130
MEAN_ANOMALY   = 171.5920

EPHEMERIS_TYPE = 0
CLASSIFICATION_TYPE = U
NORAD_CAT_ID   = 20323
ELEMENT_SET_NO = 999
REV_AT_EPOCH   = 89266
BSTAR          = .98465E-4
MEAN_MOTION_DOT = .363E-5
MEAN_MOTION_DDOT = 0

CCSDS_OMM_VERS = 2.0
CREATION_DATE  = 
ORIGINATOR     = 

OBJECT_NAME    = ARIANE 40 R/B
OBJECT_ID      = 1990-005H
CENTER_NAME    = EARTH
REF_FRAME      = TEME
TIME_SYSTEM    = UTC
MEAN_ELEMENT_THEORY = SGP/SGP4

EPOCH          = 2026-02-16T03:10:21.794880
MEAN_MOTION    = 14.39855833
ECCENTRICITY   = .0008876
INCLINATION    = 98.3132
RA_OF_ASC_NODE = 108.4307
ARG_OF_PERICENTER = 268.7574
MEAN_ANOMALY   = 91.2597

EPHEMERIS_TYPE = 0
CLASSIFICATION_TYPE = U
NORAD_CAT_ID   = 20443
ELEMENT_SET_NO = 999
REV_AT_EPOCH   = 88970
BSTAR          = .10643785E-3
MEAN_MOTION_DOT = .292E-5
MEAN_MOTION_DDOT = 0

